{
    "links": {
        "self": "http://www.neowsapp.com/rest/v1/neo/3757726?api_key=iIulBulltgU6a56xZRHN4H3l9WmuAYTsLGpBGhQ2"
    },
    "id": "3757726",
    "neo_reference_id": "3757726",
    "name": "(2016 QY1)",
    "designation": "2016 QY1",
    "nasa_jpl_url": "http://ssd.jpl.nasa.gov/sbdb.cgi?sstr=3757726",
    "absolute_magnitude_h": 23.3,
    "estimated_diameter": {
        "kilometers": {
            "estimated_diameter_min": 0.058150704,
            "estimated_diameter_max": 0.130028927
        },
        "meters": {
            "estimated_diameter_min": 58.1507039646,
            "estimated_diameter_max": 130.0289270043
        },
        "miles": {
            "estimated_diameter_min": 0.0361331611,
            "estimated_diameter_max": 0.0807962044
        },
        "feet": {
            "estimated_diameter_min": 190.7831555951,
            "estimated_diameter_max": 426.6041048727
        }
    },
    "is_potentially_hazardous_asteroid": false,
    "close_approach_data": [
        {
            "close_approach_date": "2016-08-10",
            "close_approach_date_full": "2016-Aug-10 03:15",
            "epoch_date_close_approach": 1470798900000,
            "relative_velocity": {
                "kilometers_per_second": "12.3243325761",
                "kilometers_per_hour": "44367.597273794",
                "miles_per_hour": "27568.299539375"
            },
            "miss_distance": {
                "astronomical": "0.0186394911",
                "lunar": "7.2507620379",
                "kilometers": "2788428.166443957",
                "miles": "1732648.9186303266"
            },
            "orbiting_body": "Earth"
        }
    ],
    "orbital_data": {
        "orbit_id": "10",
        "orbit_determination_date": "2017-04-06 08:24:26",
        "first_observation_date": "2016-08-26",
        "last_observation_date": "2016-09-21",
        "data_arc_in_days": 26,
        "observations_used": 76,
        "orbit_uncertainty": "8",
        "minimum_orbit_intersection": ".0174225",
        "jupiter_tisserand_invariant": "3.337",
        "epoch_osculation": "2457629.5",
        "eccentricity": ".6002722351610822",
        "semi_major_axis": "2.283506292806494",
        "inclination": "2.572579112415967",
        "ascending_node_longitude": "159.0954145652266",
        "orbital_period": "1260.380705030613",
        "perihelion_distance": ".9127808664191432",
        "perihelion_argument": "114.4825308715002",
        "aphelion_distance": "3.654231719193845",
        "perihelion_time": "2457577.615946840690",
        "mean_anomaly": "14.81953751180119",
        "mean_motion": ".2856279841187001",
        "equinox": "J2000",
        "orbit_class": {
            "orbit_class_type": "APO",
            "orbit_class_description": "Near-Earth asteroid orbits which cross the Earth’s orbit similar to that of 1862 Apollo",
            "orbit_class_range": "a (semi-major axis) > 1.0 AU; q (perihelion) < 1.017 AU"
        }
    },
    "is_sentry_object": false
}